NORAD_CAT_ID,OBJECT_NAME,OBJECT_TYPE,EPOCH,MEAN_MOTION,ECCENTRICITY,INCLINATION,RA_OF_ASC_NODE,ARG_OF_PERICENTER,MEAN_ANOMALY,BSTAR,MEAN_MOTION_DOT,MEAN_MOTION_DDOT,TLE_LINE0,TLE_LINE1,TLE_LINE2,SEMIMAJOR_AXIS,PERIOD,APOGEE,PERIGEE,DECAYED
51461.0,STARLINK-3181,PAYLOAD,2023-10-10 05:55:41,15.08842204,0.000176,53.2148,276.0702,87.3334,272.786,0.00030279,4.534e-05,0.0,0 STARLINK-3181,1 51461U 22010F   23283.24701163  .00004534  00000-0  30279-3 0  9994,2 51461  53.2148 276.0702 0001760  87.3334 272.7860 15.08842204 93758,6917.874,95.437,540.956,538.521,0.0
51461.0,STARLINK-3181,PAYLOAD,2023-10-11 05:46:29,15.08839907,0.0001715,53.215,271.6104,99.0353,261.0834,3.0768e-05,2.02e-06,0.0,0 STARLINK-3181,1 51461U 22010F   23284.24061458  .00000202  00000-0  30768-4 0  9993,2 51461  53.2150 271.6104 0001715  99.0353 261.0834 15.08839907 94400,6917.881,95.438,540.932,538.559,0.0
51461.0,STARLINK-3181,PAYLOAD,2023-10-11 10:32:38,15.08846233,0.0001461,53.2158,270.7178,93.6543,266.4617,0.00020938,3.046e-05,0.0,0 STARLINK-3181,1 51461U 22010F   23284.43933245  .00003046  00000-0  20938-3 0  9992,2 51461  53.2158 270.7178 0001461  93.6543 266.4617 15.08846233 93933,6917.861,95.437,540.737,538.716,0.0
51461.0,STARLINK-3181,PAYLOAD,2023-10-12 08:48:02,15.08844332,0.0001692,53.2167,266.5522,112.6779,247.4392,0.00026175,3.881e-05,0.0,0 STARLINK-3181,1 51461U 22010F   23285.36669610  .00003881  00000-0  26175-3 0  9993,2 51461  53.2167 266.5522 0001692 112.6779 247.4392 15.08844332 94071,6917.867,95.437,540.903,538.562,0.0
51461.0,STARLINK-3181,PAYLOAD,2023-10-13 05:28:03,15.08846144,0.0001387,53.2161,262.6889,94.6264,265.4886,0.0002587,3.832e-05,0.0,0 STARLINK-3181,1 51461U 22010F   23286.22781770  .00003832  00000-0  25870-3 0  9998,2 51461  53.2161 262.6889 0001387  94.6264 265.4886 15.08846144 94708,6917.862,95.437,540.686,538.767,0.0
51461.0,STARLINK-3181,PAYLOAD,2023-10-13 08:38:49,15.08849726,0.0001402,53.2161,262.0939,94.4244,265.6909,0.00033105,4.986e-05,0.0,0 STARLINK-3181,1 51461U 22010F   23286.36029659  .00004986  00000-0  33105-3 0  9995,2 51461  53.2161 262.0939 0001402  94.4244 265.6909 15.08849726 94226,6917.851,95.437,540.686,538.746,0.0
51461.0,STARLINK-3181,PAYLOAD,2023-10-13 15:00:22,15.08854045,0.0001399,53.2161,260.9046,95.2686,264.8466,0.00047861,7.34e-05,0.0,0 STARLINK-3181,1 51461U 22010F   23286.62525518  .00007340  00000-0  47861-3 0  9990,2 51461  53.2161 260.9046 0001399  95.2686 264.8466 15.08854045 94269,6917.837,95.437,540.67,538.735,0.0
51461.0,STARLINK-3181,PAYLOAD,2023-10-14 05:18:49,15.08875967,0.0001355,53.2154,258.2297,98.2912,261.8234,0.00098512,0.0001544,0.0,0 STARLINK-3181,1 51461U 22010F   23287.22140367  .00015440  00000-0  98512-3 0  9991,2 51461  53.2154 258.2297 0001355  98.2912 261.8234 15.08875967 94857,6917.77,95.435,540.573,538.698,0.0
51461.0,STARLINK-3181,PAYLOAD,2023-10-14 08:29:35,15.088861,0.0001362,53.2156,257.6344,95.729,264.3857,0.0011248,0.00017681,0.0,0 STARLINK-3181,1 51461U 22010F   23287.35387989  .00017681  00000-0  11248-2 0  9997,2 51461  53.2156 257.6344 0001362  95.7290 264.3857 15.08886100 94371,6917.739,95.435,540.547,538.662,0.0
51461.0,STARLINK-3181,PAYLOAD,2023-10-14 21:12:41,15.08836471,0.0002175,53.2158,255.2549,88.7278,271.3963,-0.0003621,-6.046e-05,0.0,0 STARLINK-3181,1 51461U 22010F   23287.88381080 -.00006046  00000-0 -36210-3 0  9993,2 51461  53.2158 255.2549 0002175  88.7278 271.3963 15.08836471 94951,6917.891,95.438,541.261,538.252,0.0
51461.0,STARLINK-3181,PAYLOAD,2023-10-15 14:41:56,15.08831238,0.0001473,53.2164,251.9834,99.7203,260.3956,7.5592e-05,9.15e-06,0.0,0 STARLINK-3181,1 51461U 22010F   23288.61245761  .00000915  00000-0  75592-4 0  9994,2 51461  53.2164 251.9834 0001473  99.7203 260.3956 15.08831238 94561,6917.907,95.438,540.791,538.753,0.0
51461.0,STARLINK-3181,PAYLOAD,2023-10-16 05:00:24,15.08843507,0.0001418,53.2158,249.3084,108.1538,251.9609,0.00092566,0.00014476,0.0,0 STARLINK-3181,1 51461U 22010F   23289.20862232  .00014476  00000-0  92566-3 0  9994,2 51461  53.2158 249.3084 0001418 108.1538 251.9609 15.08843507 95156,6917.87,95.437,540.716,538.754,0.0
51461.0,STARLINK-3181,PAYLOAD,2023-10-18 03:06:36,15.08840651,0.0001518,53.2149,240.6855,97.3661,262.7503,0.00013336,1.835e-05,0.0,0 STARLINK-3181,1 51461U 22010F   23291.12958697  .00001835  00000-0  13336-3 0  9992,2 51461  53.2149 240.6855 0001518  97.3661 262.7503 15.08840651 94949,6917.878,95.438,540.794,538.693,0.0
51461.0,STARLINK-3181,PAYLOAD,2023-10-18 11:03:31,15.08849617,0.0001509,53.2156,239.198,97.3748,262.7416,0.00022228,3.252e-05,0.0,0 STARLINK-3181,1 51461U 22010F   23291.46078290  .00003252  00000-0  22228-3 0  9996,2 51461  53.2156 239.1980 0001509  97.3748 262.7416 15.08849617 95490,6917.851,95.437,540.76,538.672,0.0
51461.0,STARLINK-3181,PAYLOAD,2023-10-18 14:14:18,15.08834437,0.0001331,53.2162,238.6048,89.4561,270.6583,-6.2173e-06,-3.87e-06,0.0,0 STARLINK-3181,1 51461U 22010F   23291.59327023 -.00000387  00000-0 -62173-5 0  9994,2 51461  53.2162 238.6048 0001331  89.4561 270.6583 15.08834437 95514,6917.897,95.438,540.683,538.842,0.0
51461.0,STARLINK-3181,PAYLOAD,2023-10-19 02:57:23,15.08845031,0.0001467,53.2163,236.224,94.1204,265.9956,0.00030126,4.51e-05,0.0,0 STARLINK-3181,1 51461U 22010F   23292.12318644  .00004510  00000-0  30126-3 0  9994,2 51461  53.2163 236.2240 0001467  94.1204 265.9956 15.08845031 95591,6917.865,95.437,540.745,538.715,0.0
51461.0,STARLINK-3181,PAYLOAD,2023-10-19 06:08:09,15.08850745,0.0001634,53.2175,235.6264,106.686,253.4312,0.00039058,5.935e-05,0.0,0 STARLINK-3181,1 51461U 22010F   23292.25566302  .00005935  00000-0  39058-3 0  9999,2 51461  53.2175 235.6264 0001634 106.6860 253.4312 15.08850745 95110,6917.848,95.437,540.843,538.582,0.0
51461.0,STARLINK-3181,PAYLOAD,2023-10-20 02:48:09,15.08850455,0.000157,53.2158,231.7625,98.3623,261.7547,0.00020046,2.905e-05,0.0,0 STARLINK-3181,1 51461U 22010F   23293.11678140  .00002905  00000-0  20046-3 0  9990,2 51461  53.2158 231.7625 0001570  98.3623 261.7547 15.08850455 95246,6917.848,95.437,540.8,538.627,0.0
51461.0,STARLINK-3181,PAYLOAD,2023-10-21 02:38:57,15.08834853,0.0001511,53.2165,227.2984,100.1263,259.99,-3.2708e-05,-8.08e-06,0.0,0 STARLINK-3181,1 51461U 22010F   23294.11038928 -.00000808  00000-0 -32708-4 0  9996,2 51461  53.2165 227.2984 0001511 100.1263 259.9900 15.08834853 95896,6917.896,95.438,540.806,538.716,0.0
51461.0,STARLINK-3181,PAYLOAD,2023-10-21 12:11:16,15.088421,0.0001379,53.2164,225.5197,95.7836,264.3314,0.00012965,1.776e-05,0.0,0 STARLINK-3181,1 51461U 22010F   23294.50782687  .00001776  00000-0  12965-3 0  9992,2 51461  53.2164 225.5197 0001379  95.7836 264.3314 15.08842100 95454,6917.874,95.437,540.693,538.785,0.0
51461.0,STARLINK-3181,PAYLOAD,2023-10-21 20:08:11,15.08848699,0.0001232,53.2153,224.0334,92.932,267.1813,0.00042434,6.474e-05,0.0,0 STARLINK-3181,1 51461U 22010F   23294.83902671  .00006474  00000-0  42434-3 0  9999,2 51461  53.2153 224.0334 0001232  92.9320 267.1813 15.08848699 96000,6917.854,95.437,540.571,538.867,0.0
51461.0,STARLINK-3181,PAYLOAD,2023-10-22 04:05:06,15.08873163,0.0001348,53.2163,222.547,84.9886,275.126,0.0010048,0.00015754,0.0,0 STARLINK-3181,1 51461U 22010F   23295.17021952  .00015754  00000-0  10048-2 0  9997,2 51461  53.2163 222.5470 0001348  84.9886 275.1260 15.08873163 96055,6917.779,95.435,540.577,538.712,0.0
51461.0,STARLINK-3181,PAYLOAD,2023-10-22 12:02:03,15.08841173,0.0002002,53.2163,221.0582,86.2931,273.829,-0.00029649,-5.004e-05,0.0,0 STARLINK-3181,1 51461U 22010F   23295.50142565 -.00005004  00000-0 -29649-3 0  9995,2 51461  53.2163 221.0582 0002002  86.2931 273.8290 15.08841173 96107,6917.877,95.437,541.127,538.357,0.0
51461.0,STARLINK-3181,PAYLOAD,2023-10-23 02:20:32,15.0881943,0.0001375,53.2161,218.3847,106.7203,253.394,0.00106,0.00016613,0.0,0 STARLINK-3181,1 51461U 22010F   23296.09759357  .00016613  00000-0  10600-2 0  9995,2 51461  53.2161 218.3847 0001375 106.7203 253.3940 15.08819430 96195,6917.943,95.439,540.759,538.857,0.0
51461.0,STARLINK-3181,PAYLOAD,2023-10-24 03:46:42,15.08848919,0.0001462,53.2162,213.6268,102.1022,258.0134,0.0008325,0.00012989,0.0,0 STARLINK-3181,1 51461U 22010F   23297.15743734  .00012989  00000-0  83250-3 0  9999,2 51461  53.2162 213.6268 0001462 102.1022 258.0134 15.08848919 96356,6917.853,95.437,540.73,538.707,0.0
51461.0,STARLINK-3181,PAYLOAD,2023-10-24 11:43:38,15.08844839,0.0001437,53.2159,212.1394,99.3104,260.805,0.00047366,7.259e-05,0.0,0 STARLINK-3181,1 51461U 22010F   23297.48863784  .00007259  00000-0  47366-3 0  9995,2 51461  53.2159 212.1394 0001437  99.3104 260.8050 15.08844839 96407,6917.866,95.437,540.725,538.737,0.0
51461.0,STARLINK-3181,PAYLOAD,2023-10-25 22:42:07,15.08842298,0.0001818,53.2173,205.5933,111.4686,248.65,0.00026451,3.924e-05,0.0,0 STARLINK-3181,1 51461U 22010F   23298.94591712  .00003924  00000-0  26451-3 0  9993,2 51461  53.2173 205.5933 0001818 111.4686 248.6500 15.08842298 96122,6917.873,95.437,540.996,538.481,0.0
51461.0,STARLINK-3181,PAYLOAD,2023-10-26 00:17:30,15.08841261,0.000153,53.2173,205.2949,113.2611,246.8543,0.0001815,2.602e-05,0.0,0 STARLINK-3181,1 51461U 22010F   23299.01215713  .00002602  00000-0  18150-3 0  9995,2 51461  53.2173 205.2949 0001530 113.2611 246.8543 15.08841261 96637,6917.877,95.437,540.8,538.683,0.0
51461.0,STARLINK-3181,PAYLOAD,2023-10-26 20:57:30,15.08857308,0.0001269,53.2154,201.4333,97.3745,262.7392,0.0005133,7.895e-05,0.0,0 STARLINK-3181,1 51461U 22010F   23299.87327256  .00007895  00000-0  51330-3 0  9991,2 51461  53.2154 201.4333 0001269  97.3745 262.7392 15.08857308 96267,6917.827,95.436,540.57,538.815,0.0
51461.0,STARLINK-3181,PAYLOAD,2023-10-27 03:19:02,15.08876804,0.0001324,53.2161,200.2434,93.2486,266.8657,0.0017869,0.00028294,0.0,0 STARLINK-3181,1 51461U 22010F   23300.13822856  .00028294  00000-0  17869-2 0  9993,2 51461  53.2161 200.2434 0001324  93.2486 266.8657 15.08876804 96804,6917.768,95.435,540.549,538.717,0.0
